{
    "links": {
        "self": "http://www.neowsapp.com/rest/v1/neo/3582511?api_key=iIulBulltgU6a56xZRHN4H3l9WmuAYTsLGpBGhQ2"
    },
    "id": "3582511",
    "neo_reference_id": "3582511",
    "name": "(2011 UQ63)",
    "designation": "2011 UQ63",
    "nasa_jpl_url": "http://ssd.jpl.nasa.gov/sbdb.cgi?sstr=3582511",
    "absolute_magnitude_h": 24.2,
    "estimated_diameter": {
        "kilometers": {
            "estimated_diameter_min": 0.0384197891,
            "estimated_diameter_max": 0.0859092601
        },
        "meters": {
            "estimated_diameter_min": 38.4197891064,
            "estimated_diameter_max": 85.9092601232
        },
        "miles": {
            "estimated_diameter_min": 0.0238729428,
            "estimated_diameter_max": 0.0533815229
        },
        "feet": {
            "estimated_diameter_min": 126.0491808919,
            "estimated_diameter_max": 281.8545369825
        }
    },
    "is_potentially_hazardous_asteroid": false,
    "close_approach_data": [
        {
            "close_approach_date": "2011-10-05",
            "close_approach_date_full": "2011-Oct-05 23:31",
            "epoch_date_close_approach": 1317857460000,
            "relative_velocity": {
                "kilometers_per_second": "13.2945067243",
                "kilometers_per_hour": "47860.2242075707",
                "miles_per_hour": "29738.482091643"
            },
            "miss_distance": {
                "astronomical": "0.0110424329",
                "lunar": "4.2955063981",
                "kilometers": "1651924.441457923",
                "miles": "1026458.2504204174"
            },
            "orbiting_body": "Earth"
        },
        {
            "close_approach_date": "2198-05-20",
            "close_approach_date_full": "2198-May-20 02:33",
            "epoch_date_close_approach": 7207065180000,
            "relative_velocity": {
                "kilometers_per_second": "21.486314444",
                "kilometers_per_hour": "77350.7319984731",
                "miles_per_hour": "48062.736779829"
            },
            "miss_distance": {
                "astronomical": "0.3264602818",
                "lunar": "126.9930496202",
                "kilometers": "48837762.796879766",
                "miles": "30346378.6217061308"
            },
            "orbiting_body": "Earth"
        },
        {
            "close_approach_date": "2200-07-02",
            "close_approach_date_full": "2200-Jul-02 04:56",
            "epoch_date_close_approach": 7273860960000,
            "relative_velocity": {
                "kilometers_per_second": "11.6942717452",
                "kilometers_per_hour": "42099.3782826556",
                "miles_per_hour": "26158.9164667978"
            },
            "miss_distance": {
                "astronomical": "0.0392832836",
                "lunar": "15.2811973204",
                "kilometers": "5876695.553165932",
                "miles": "3651609.2893645816"
            },
            "orbiting_body": "Mars"
        }
    ],
    "orbital_data": {
        "orbit_id": "5",
        "orbit_determination_date": "2017-04-06 08:52:22",
        "first_observation_date": "2011-10-20",
        "last_observation_date": "2011-10-25",
        "data_arc_in_days": 5,
        "observations_used": 31,
        "orbit_uncertainty": "8",
        "minimum_orbit_intersection": ".00233866",
        "jupiter_tisserand_invariant": "3.934",
        "epoch_osculation": "2455855.5",
        "eccentricity": ".5209117367775606",
        "semi_major_axis": "1.762205579644947",
        "inclination": "9.054798567128485",
        "ascending_node_longitude": "192.449147720966",
        "orbital_period": "854.4433712524625",
        "perihelion_distance": ".8442520105929896",
        "perihelion_argument": "124.0567328728057",
        "aphelion_distance": "2.680159148696904",
        "perihelion_time": "2455800.153767889586",
        "mean_anomaly": "23.3188579022423",
        "mean_motion": ".4213269271108088",
        "equinox": "J2000",
        "orbit_class": {
            "orbit_class_type": "APO",
            "orbit_class_description": "Near-Earth asteroid orbits which cross the Earth’s orbit similar to that of 1862 Apollo",
            "orbit_class_range": "a (semi-major axis) > 1.0 AU; q (perihelion) < 1.017 AU"
        }
    },
    "is_sentry_object": false
}